{"type": "FeatureCollection", "features": [ {"type": "Feature", "properties": {"norad_id": 31633, "name": "FENGYUN 1C DEB", "group": "fengyun-1c-debris", "lat": -49.24759480088994, "lon": 168.30120129649313, "alt_km": 847.5286212432593, "timestamp": "2025-12-10T05:46:14.106482+00:00", "meta": {"OBJECT_NAME": "FENGYUN 1C DEB", "OBJECT_ID": "1999-025CAP", "EPOCH": "2025-11-15T20:43:47.485920", "MEAN_MOTION": 14.06334417, "ECCENTRICITY": 0.00656916, "INCLINATION": 98.7152, "RA_OF_ASC_NODE": 335.0833, "ARG_OF_PERICENTER": 248.7649, "MEAN_ANOMALY": 110.6494, "EPHEMERIS_TYPE": 0, "CLASSIFICATION_TYPE": "U", "NORAD_CAT_ID": 31633, "ELEMENT_SET_NO": 999, "REV_AT_EPOCH": 56706, "BSTAR": 0.0011592605, "MEAN_MOTION_DOT": 1.907e-05, "MEAN_MOTION_DDOT": 0}, "tle": {"line1": "1 31633U 99025CAP 25319.86374405  .00001907  00000+0  11593-2 0  9995", "line2": "2 31633  98.7152 335.0833 0065691 248.7649 110.6494 14.06334417567064"}}, "geometry": {"type": "Point", "coordinates": [168.30120129649313, -49.24759480088994]}}, {"type": "Feature", "properties": {"norad_id": 31634, "name": "FENGYUN 1C DEB", "group": "fengyun-1c-debris", "lat": -47.963452450744924, "lon": -159.8532525200087, "alt_km": 889.6311991580551, "timestamp": "2025-12-10T05:46:14.106492+00:00", "meta": {"OBJECT_NAME": "FENGYUN 1C DEB", "OBJECT_ID": "1999-025CAQ", "EPOCH": "2025-12-02T09:00:27.072576", "MEAN_MOTION": 13.94657889, "ECCENTRICITY": 0.00916924, "INCLINATION": 99.3683, "RA_OF_ASC_NODE": 22.7184, "ARG_OF_PERICENTER": 185.6903, "MEAN_ANOMALY": 174.3223, "EPHEMERIS_TYPE": 0, "CLASSIFICATION_TYPE": "U", "NORAD_CAT_ID": 31634, "ELEMENT_SET_NO": 999, "REV_AT_EPOCH": 56379, "BSTAR": 0.00031553586, "MEAN_MOTION_DOT": 3.91e-06, "MEAN_MOTION_DDOT": 0}, "tle": {"line1": "1 31634U 99025CAQ 25336.37531334  .00000391  00000+0  31554-3 0  9993", "line2": "2 31634  99.3683  22.7184 0091692 185.6903 174.3223 13.94657889563792"}}, "geometry": {"type": "Point", "coordinates": [-159.8532525200087, -47.963452450744924]}}, {"type": "Feature", "properties": {"norad_id": 31639, "name": "FENGYUN 1C DEB", "group": "fengyun-1c-debris", "lat": -7.967381950384773, "lon": 109.11271284011237, "alt_km": 853.0862344006264, "timestamp": "2025-12-10T05:46:14.106502+00:00", "meta": {"OBJECT_NAME": "FENGYUN 1C DEB", "OBJECT_ID": "1999-025CAV", "EPOCH": "2025-12-09T02:57:43.159680", "MEAN_MOTION": 13.85161462, "ECCENTRICITY": 0.01615226, "INCLINATION": 98.7427, "RA_OF_ASC_NODE": 289.305, "ARG_OF_PERICENTER": 154.9961, "MEAN_ANOMALY": 224.7705, "EPHEMERIS_TYPE": 0, "CLASSIFICATION_TYPE": "U", "NORAD_CAT_ID": 31639, "ELEMENT_SET_NO": 999, "REV_AT_EPOCH": 93638, "BSTAR": 0.00018023866, "MEAN_MOTION_DOT": 1.87e-06, "MEAN_MOTION_DDOT": 0}, "tle": {"line1": "1 31639U 99025CAV 25343.12341620  .00000187  00000+0  18024-3 0  9996", "line2": "2 31639  98.7427 289.3050 0161522 154.9961 224.7705 13.85161462936383"}}, "geometry": {"type": "Point", "coordinates": [109.11271284011237, -7.967381950384773]}}, {"type": "Feature", "properties": {"norad_id": 31642, "name": "FENGYUN 1C DEB", "group": "fengyun-1c-debris", "lat": -62.96024028438374, "lon": 83.52961377327983, "alt_km": 714.9452263571111, "timestamp": "2025-12-10T05:46:14.106512+00:00", "meta": {"OBJECT_NAME": "FENGYUN 1C DEB", "OBJECT_ID": "1999-025CAY", "EPOCH": "2025-12-09T16:39:51.561792", "MEAN_MOTION": 14.33391678, "ECCENTRICITY": 0.0119032, "INCLINATION": 98.5047, "RA_OF_ASC_NODE": 65.9455, "ARG_OF_PERICENTER": 265.5353, "MEAN_ANOMALY": 93.2226, "EPHEMERIS_TYPE": 0, "CLASSIFICATION_TYPE": "U", "NORAD_CAT_ID": 31642, "ELEMENT_SET_NO": 999, "REV_AT_EPOCH": 96975, "BSTAR": 0.00062688, "MEAN_MOTION_DOT": 1.825e-05, "MEAN_MOTION_DDOT": 0}, "tle": {"line1": "1 31642U 99025CAY 25343.69434678  .00001825  00000+0  62688-3 0  9993", "line2": "2 31642  98.5047  65.9455 0119032 265.5353  93.2226 14.33391678969755"}}, "geometry": {"type": "Point", "coordinates": [83.52961377327983, -62.96024028438374]}}, {"type": "Feature", "properties": {"norad_id": 31644, "name": "FENGYUN 1C DEB", "group": "fengyun-1c-debris", "lat": -70.33578912174312, "lon": -100.78251802346915, "alt_km": 686.2932230845518, "timestamp": "2025-12-10T05:46:14.106522+00:00", "meta": {"OBJECT_NAME": "FENGYUN 1C DEB", "OBJECT_ID": "1999-025CBA", "EPOCH": "2025-12-09T12:40:11.254656", "MEAN_MOTION": 14.67845411, "ECCENTRICITY": 0.01541514, "INCLINATION": 98.6706, "RA_OF_ASC_NODE": 233.1838, "ARG_OF_PERICENTER": 193.2225, "MEAN_ANOMALY": 289.7829, "EPHEMERIS_TYPE": 0, "CLASSIFICATION_TYPE": "U", "NORAD_CAT_ID": 31644, "ELEMENT_SET_NO": 999, "REV_AT_EPOCH": 70997, "BSTAR": 0.0013189422, "MEAN_MOTION_DOT": 8.963e-05, "MEAN_MOTION_DDOT": 0}, "tle": {"line1": "1 31644U 99025CBA 25343.52790804  .00008963  00000+0  13189-2 0  9994", "line2": "2 31644  98.6706 233.1838 0154151 193.2225 289.7829 14.67845411709973"}}, "geometry": {"type": "Point", "coordinates": [-100.78251802346915, -70.33578912174312]}}, {"type": "Feature", "properties": {"norad_id": 31646, "name": "FENGYUN 1C DEB", "group": "fengyun-1c-debris", "lat": -42.66890272155872, "lon": 179.21309358817055, "alt_km": 828.2439189027618, "timestamp": "2025-12-10T05:46:14.106532+00:00", "meta": {"OBJECT_NAME": "FENGYUN 1C DEB", "OBJECT_ID": "1999-025CBC", "EPOCH": "2025-12-06T20:54:19.845792", "MEAN_MOTION": 14.14117745, "ECCENTRICITY": 0.00327131, "INCLINATION": 98.6907, "RA_OF_ASC_NODE": 4.0414, "ARG_OF_PERICENTER": 230.7291, "MEAN_ANOMALY": 129.0979, "EPHEMERIS_TYPE": 0, "CLASSIFICATION_TYPE": "U", "NORAD_CAT_ID": 31646, "ELEMENT_SET_NO": 999, "REV_AT_EPOCH": 63108, "BSTAR": 0.00078502967, "MEAN_MOTION_DOT": 1.459e-05, "MEAN_MOTION_DDOT": 0}, "tle": {"line1": "1 31646U 99025CBC 25340.87106303  .00001459  00000+0  78503-3 0  9991", "line2": "2 31646  98.6907   4.0414 0032713 230.7291 129.0979 14.14117745631084"}}, "geometry": {"type": "Point", "coordinates": [179.21309358817055, -42.66890272155872]}}, {"type": "Feature", "properties": {"norad_id": 31655, "name": "FENGYUN 1C DEB", "group": "fengyun-1c-debris", "lat": 52.038587722959015, "lon": 122.34617197557363, "alt_km": 812.7487248428997, "timestamp": "2025-12-10T05:46:14.106543+00:00", "meta": {"OBJECT_NAME": "FENGYUN 1C DEB", "OBJECT_ID": "1999-025CBM", "EPOCH": "2025-12-08T02:11:00.557952", "MEAN_MOTION": 13.63822611, "ECCENTRICITY": 0.02885921, "INCLINATION": 99.2861, "RA_OF_ASC_NODE": 288.1866, "ARG_OF_PERICENTER": 150.074, "MEAN_ANOMALY": 229.9547, "EPHEMERIS_TYPE": 0, "CLASSIFICATION_TYPE": "U", "NORAD_CAT_ID": 31655, "ELEMENT_SET_NO": 999, "REV_AT_EPOCH": 59656, "BSTAR": 0.0034168292, "MEAN_MOTION_DOT": 3.556e-05, "MEAN_MOTION_DDOT": 0}, "tle": {"line1": "1 31655U 99025CBM 25342.09097868  .00003556  00000+0  34168-2 0  9990", "line2": "2 31655  99.2861 288.1866 0288592 150.0740 229.9547 13.63822611596569"}}, "geometry": {"type": "Point", "coordinates": [122.34617197557363, 52.038587722959015]}}, {"type": "Feature", "properties": {"norad_id": 31656, "name": "FENGYUN 1C DEB", "group": "fengyun-1c-debris", "lat": -45.8751656572897, "lon": 143.20076353796475, "alt_km": 758.1971262297056, "timestamp": "2025-12-10T05:46:14.106572+00:00", "meta": {"OBJECT_NAME": "FENGYUN 1C DEB", "OBJECT_ID": "1999-025CBN", "EPOCH": "2025-12-07T22:06:00.092160", "MEAN_MOTION": 14.46894273, "ECCENTRICITY": 0.00228069, "INCLINATION": 99.1931, "RA_OF_ASC_NODE": 330.2965, "ARG_OF_PERICENTER": 65.9258, "MEAN_ANOMALY": 324.8359, "EPHEMERIS_TYPE": 0, "CLASSIFICATION_TYPE": "U", "NORAD_CAT_ID": 31656, "ELEMENT_SET_NO": 999, "REV_AT_EPOCH": 96386, "BSTAR": 0.002990493, "MEAN_MOTION_DOT": 0.00010853, "MEAN_MOTION_DDOT": 0}, "tle": {"line1": "1 31656U 99025CBN 25341.92083440  .00010853  00000+0  29905-2 0  9994", "line2": "2 31656  99.1931 330.2965 0022806  65.9258 324.8359 14.46894273963860"}}, "geometry": {"type": "Point", "coordinates": [143.20076353796475, -45.8751656572897]}}, {"type": "Feature", "properties": {"norad_id": 31657, "name": "FENGYUN 1C DEB", "group": "fengyun-1c-debris", "lat": 12.436194067378407, "lon": 70.56282994227932, "alt_km": 935.4286359866546, "timestamp": "2025-12-10T05:46:14.106584+00:00", "meta": {"OBJECT_NAME": "FENGYUN 1C DEB", "OBJECT_ID": "1999-025CBP", "EPOCH": "2025-12-08T23:46:04.581120", "MEAN_MOTION": 13.96979692, "ECCENTRICITY": 0.0146321, "INCLINATION": 102.2162, "RA_OF_ASC_NODE": 246.1689, "ARG_OF_PERICENTER": 62.9314, "MEAN_ANOMALY": 298.6682, "EPHEMERIS_TYPE": 0, "CLASSIFICATION_TYPE": "U", "NORAD_CAT_ID": 31657, "ELEMENT_SET_NO": 999, "REV_AT_EPOCH": 62812, "BSTAR": 0.0038883, "MEAN_MOTION_DOT": 5.871e-05, "MEAN_MOTION_DDOT": 0}, "tle": {"line1": "1 31657U 99025CBP 25342.99033080  .00005871  00000+0  38883-2 0  9997", "line2": "2 31657 102.2162 246.1689 0146321  62.9314 298.6682 13.96979692628127"}}, "geometry": {"type": "Point", "coordinates": [70.56282994227932, 12.436194067378407]}}, {"type": "Feature", "properties": {"norad_id": 31658, "name": "FENGYUN 1C DEB", "group": "fengyun-1c-debris", "lat": 81.58171198696152, "lon": 117.98270229928455, "alt_km": 963.14199826189, "timestamp": "2025-12-10T05:46:14.106595+00:00", "meta": {"OBJECT_NAME": "FENGYUN 1C DEB", "OBJECT_ID": "1999-025CBQ", "EPOCH": "2025-11-30T13:35:01.131648", "MEAN_MOTION": 13.98632883, "ECCENTRICITY": 0.0215722, "INCLINATION": 98.1534, "RA_OF_ASC_NODE": 184.9954, "ARG_OF_PERICENTER": 356.7033, "MEAN_ANOMALY": 3.2699, "EPHEMERIS_TYPE": 0, "CLASSIFICATION_TYPE": "U", "NORAD_CAT_ID": 31658, "ELEMENT_SET_NO": 999, "REV_AT_EPOCH": 69646, "BSTAR": 0.0024889, "MEAN_MOTION_DOT": 4.324e-05, "MEAN_MOTION_DDOT": 0}, "tle": {"line1": "1 31658U 99025CBQ 25334.56598532  .00004324  00000+0  24889-2 0  9993", "line2": "2 31658  98.1534 184.9954 0215722 356.7033   3.2699 13.98632883696462"}}, "geometry": {"type": "Point", "coordinates": [117.98270229928455, 81.58171198696152]}}]}